NORAD_CAT_ID,OBJECT_NAME,OBJECT_TYPE,EPOCH,MEAN_MOTION,ECCENTRICITY,INCLINATION,RA_OF_ASC_NODE,ARG_OF_PERICENTER,MEAN_ANOMALY,BSTAR,MEAN_MOTION_DOT,MEAN_MOTION_DDOT,TLE_LINE0,TLE_LINE1,TLE_LINE2,SEMIMAJOR_AXIS,PERIOD,APOGEE,PERIGEE,DECAYED
52311.0,STARLINK-3750,PAYLOAD,2022-10-22 05:53:21,15.08836386,0.0002109999999999,53.2158,230.7459,35.4191,324.6941,7.5957e-05,9.21e-06,0.0,0 STARLINK-3750,1 52311U 22041BC  22295.24538349  .00000921  00000-0  75957-4 0  9998,2 52311  53.2158 230.7459 0002110  35.4191 324.6941 15.08836386 29508,6917.891,95.438,541.216,538.297,0.0
52311.0,STARLINK-3750,PAYLOAD,2022-10-22 20:11:49,15.08837714,0.0002144,53.216,228.0695,36.4192,323.6946,6.737899999999999e-05,7.84e-06,0.0,0 STARLINK-3750,1 52311U 22041BC  22295.84154391  .00000784  00000-0  67379-4 0  9991,2 52311  53.2160 228.0695 0002144  36.4192 323.6946 15.08837714 29591,6917.887,95.438,541.236,538.269,0.0
52311.0,STARLINK-3750,PAYLOAD,2022-10-23 04:08:44,15.08847654,0.000216,53.2162,226.5831,37.6953,322.4191,0.00015102,2.117e-05,0.0,0 STARLINK-3750,1 52311U 22041BC  22296.17273577  .00002117  00000-0  15102-3 0  9994,2 52311  53.2162 226.5831 0002160  37.6953 322.4191 15.08847654 29643,6917.857,95.437,541.216,538.2280000000002,0.0
52311.0,STARLINK-3750,PAYLOAD,2022-10-24 11:56:26,15.08844,0.0002209,53.216,220.6356,36.213,323.9011,4.6507e-05,4.52e-06,0.0,0 STARLINK-3750,1 52311U 22041BC  22297.49753282  .00000452  00000-0  46507-4 0  9990,2 52311  53.2160 220.6356 0002209  36.2130 323.9011 15.08844000 29845,6917.868,95.437,541.261,538.205,0.0
52311.0,STARLINK-3750,PAYLOAD,2022-10-24 18:18:01,15.08818464,0.0002174,53.2162,219.4466,39.4319,320.6831,-0.00011749,-2.157e-05,0.0,0 STARLINK-3750,1 52311U 22041BC  22297.76251876 -.00002157  00000-0 -11749-3 0  9997,2 52311  53.2162 219.4466 0002174  39.4319 320.6831 15.08818464 29883,6917.946,95.439,541.315,538.307,0.0
52311.0,STARLINK-3750,PAYLOAD,2022-10-25 03:50:20,15.08822643,0.0002228,53.2164,217.6621,40.0257,320.0899,-0.00015182,-2.703e-05,0.0,0 STARLINK-3750,1 52311U 22041BC  22298.15996154 -.00002703  00000-0 -15182-3 0  9998,2 52311  53.2164 217.6621 0002228  40.0257 320.0899 15.08822643 29946,6917.933000000001,95.439,541.34,538.257,0.0
52311.0,STARLINK-3750,PAYLOAD,2022-10-25 18:08:48,15.08825125,0.000225,53.2162,214.9856,39.0391,321.0763,-1.0543e-05,-4.56e-06,0.0,0 STARLINK-3750,1 52311U 22041BC  22298.75611917 -.00000456  00000-0 -10543-4 0  9995,2 52311  53.2162 214.9856 0002250  39.0391 321.0763 15.08825125 30037,6917.926,95.438,541.347,538.234,0.0
52311.0,STARLINK-3750,PAYLOAD,2022-10-26 11:38:03,15.08836362,0.0002313,53.2158,211.7149,41.7012,318.4156,0.00024263,3.575e-05,0.0,0 STARLINK-3750,1 52311U 22041BC  22299.48475953  .00003575  00000-0  24263-3 0  9990,2 52311  53.2158 211.7149 0002313  41.7012 318.4156 15.08836362 30145,6917.892,95.438,541.357,538.156,0.0
52311.0,STARLINK-3750,PAYLOAD,2022-10-27 03:31:54,15.08862008,0.0002354,53.2151,208.7413,43.1302,316.9874,0.00088017,0.00013756,0.0,0 STARLINK-3750,1 52311U 22041BC  22300.14715811  .00013756  00000-0  88017-3 0  9995,2 52311  53.2151 208.7413 0002354  43.1302 316.9874 15.08862008 30248,6917.813,95.436,541.307,538.05,0.0
52311.0,STARLINK-3750,PAYLOAD,2022-10-27 11:28:49,15.08862061,0.0002389,53.2149,207.2543,43.3686,316.7494,0.00058234,8.998e-05,0.0,0 STARLINK-3750,1 52311U 22041BC  22300.47835487  .00008998  00000-0  58234-3 0  9993,2 52311  53.2149 207.2543 0002389  43.3686 316.7494 15.08862061 30298,6917.813,95.436,541.331,538.025,0.0
52311.0,STARLINK-3750,PAYLOAD,2022-10-27 22:36:31,15.08870441,0.0002421999999999,53.2146,205.1728,43.9567,316.1618,0.00059202,9.154e-05,0.0,0 STARLINK-3750,1 52311U 22041BC  22300.94202665  .00009154  00000-0  59202-3 0  9992,2 52311  53.2146 205.1728 0002422  43.9567 316.1618 15.08870441 30360,6917.7869999999975,95.436,541.328,537.977,0.0
52311.0,STARLINK-3750,PAYLOAD,2022-10-28 04:58:03,15.08862688,0.0002343999999999,53.2148,203.9834,41.8014,318.3157,0.00027544,4.101e-05,0.0,0 STARLINK-3750,1 52311U 22041BC  22301.20698493  .00004101  00000-0  27544-3 0  9991,2 52311  53.2148 203.9834 0002344  41.8014 318.3157 15.08862688 30404,6917.811,95.436,541.298,538.055,0.0
52311.0,STARLINK-3750,PAYLOAD,2022-10-28 11:19:35,15.08869644,0.0002279999999999,53.2145,202.7942,40.7343,319.3819,0.0004468,6.836e-05,0.0,0 STARLINK-3750,1 52311U 22041BC  22301.47193938  .00006836  00000-0  44680-3 0  9991,2 52311  53.2145 202.7942 0002280  40.7343 319.3819 15.08869644 30449,6917.79,95.436,541.232,538.078,0.0
52311.0,STARLINK-3750,PAYLOAD,2022-10-28 19:16:31,15.088242,0.0002417,53.2147,201.3067,7.0801,353.0225,-0.0011214,-0.00018084,0.0,0 STARLINK-3750,1 52311U 22041BC  22301.80314122 -.00018084  00000-0 -11214-2 0  9994,2 52311  53.2147 201.3067 0002417   7.0801 353.0225 15.08824200 30491,6917.929,95.439,541.466,538.122,0.0
52311.0,STARLINK-3750,PAYLOAD,2022-10-29 03:13:26,15.08854139,0.0002284,53.2147,199.8201,39.0613,321.0544,6.9436e-05,8.17e-06,0.0,0 STARLINK-3750,1 52311U 22041BC  22302.13433872  .00000817  00000-0  69436-4 0  9999,2 52311  53.2147 199.8201 0002284  39.0613 321.0544 15.08854139 30549,6917.837,95.437,541.2819999999998,538.122,0.0
52311.0,STARLINK-3750,PAYLOAD,2022-10-29 20:42:40,15.08857881,0.0002241,53.2143,196.5478,39.4712,320.6443,0.00029795,4.459e-05,0.0,0 STARLINK-3750,1 52311U 22041BC  22302.86297362  .00004459  00000-0  29795-3 0  9990,2 52311  53.2143 196.5478 0002241  39.4712 320.6443 15.08857881 30654,6917.826,95.436,541.241,538.14,0.0
52311.0,STARLINK-3750,PAYLOAD,2022-10-30 09:25:46,15.08836856,0.0002420999999999,53.2148,194.1698,39.7161,320.4008,-2.517e-05,-6.89e-06,0.0,0 STARLINK-3750,1 52311U 22041BC  22303.39289870 -.00000689  00000-0 -25170-4 0  9991,2 52311  53.2148 194.1698 0002421  39.7161 320.4008 15.08836856 30731,6917.89,95.438,541.43,538.08,0.0
52311.0,STARLINK-3750,PAYLOAD,2022-10-30 17:22:42,15.08840841,0.0002506999999999,53.2138,192.681,36.0655,324.0506,0.00015402,2.164e-05,0.0,0 STARLINK-3750,1 52311U 22041BC  22303.72409757  .00002164  00000-0  15402-3 0  9990,2 52311  53.2138 192.6810 0002507  36.0655 324.0506 15.08840841 30789,6917.878000000002,95.438,541.477,538.009,0.0
52311.0,STARLINK-3750,PAYLOAD,2022-10-30 23:44:14,15.08835243,0.0002249,53.2144,191.4921,32.7093,327.4038,3.7916e-05,3.15e-06,0.0,0 STARLINK-3750,1 52311U 22041BC  22303.98905949  .00000315  00000-0  37916-4 0  9993,2 52311  53.2144 191.4921 0002249  32.7093 327.4038 15.08835243 30820,6917.895,95.438,541.316,538.2040000000002,0.0
52311.0,STARLINK-3750,PAYLOAD,2022-11-01 02:45:48,15.08834539,0.0002283,53.2146,186.4377,35.6447,324.4697,4.8985e-05,4.91e-06,0.0,0 STARLINK-3750,1 52311U 22041BC  22305.11514672  .00000491  00000-0  48985-4 0  9992,2 52311  53.2146 186.4377 0002283  35.6447 324.4697 15.08834539 30997,6917.897,95.438,541.341,538.183,0.0
52311.0,STARLINK-3750,PAYLOAD,2022-11-01 09:07:21,15.08834581,0.0002287,53.2147,185.2483,37.0194,323.0956,0.00010368,1.362e-05,0.0,0 STARLINK-3750,1 52311U 22041BC  22305.38010806  .00001362  00000-0  10368-3 0  9992,2 52311  53.2147 185.2483 0002287  37.0194 323.0956 15.08834581 31038,6917.897,95.438,541.344,538.18,0.0
52311.0,STARLINK-3750,PAYLOAD,2022-11-02 08:58:08,15.08840632,0.0002444,53.2148,180.7883,41.5224,318.5954,0.00026327,3.904e-05,0.0,0 STARLINK-3750,1 52311U 22041BC  22306.37371236  .00003904  00000-0  26327-3 0  9995,2 52311  53.2148 180.7883 0002444  41.5224 318.5954 15.08840632 31189,6917.878000000002,95.438,541.434,538.053,0.0
52311.0,STARLINK-3750,PAYLOAD,2022-11-02 21:41:14,15.08837868,0.0002578,53.2147,178.4092,45.8142,314.3062,0.00016465,2.333e-05,0.0,0 STARLINK-3750,1 52311U 22041BC  22306.90363587  .00002333  00000-0  16465-3 0  9991,2 52311  53.2147 178.4092 0002578  45.8142 314.3062 15.08837868 31268,6917.887,95.438,541.535,537.9680000000002,0.0
52311.0,STARLINK-3750,PAYLOAD,2022-11-03 00:52:00,15.0883392,0.0002263,53.2152,177.8143,40.0126,320.1032,8.6694e-05,1.092e-05,0.0,0 STARLINK-3750,1 52311U 22041BC  22307.03611790  .00001092  00000-0  86694-4 0  9991,2 52311  53.2152 177.8143 0002263  40.0126 320.1032 15.08833920 31283,6917.899,95.438,541.3290000000002,538.198,0.0
52311.0,STARLINK-3750,PAYLOAD,2022-11-03 18:21:13,15.08860246,0.000226,53.2157,174.5415,64.9853,295.1373,0.00043603,6.662e-05,0.0,0 STARLINK-3750,1 52311U 22041BC  22307.76474492  .00006662  00000-0  43603-3 0  9997,2 52311  53.2157 174.5415 0002260  64.9853 295.1373 15.08860246 31395,6917.819,95.436,541.247,538.12,0.0
52311.0,STARLINK-3750,PAYLOAD,2022-11-04 02:18:09,15.08854749,0.000219,53.215,173.0558,41.9349,318.1811,0.0003007,4.503e-05,0.0,0 STARLINK-3750,1 52311U 22041BC  22308.09594665  .00004503  00000-0  30070-3 0  9995,2 52311  53.2150 173.0558 0002190  41.9349 318.1811 15.08854749 31447,6917.835,95.437,541.215,538.185,0.0
52311.0,STARLINK-3750,PAYLOAD,2022-11-04 08:39:41,15.08856841,0.000236,53.2148,171.8674,41.4657,318.6514,0.0002342,3.443e-05,0.0,0 STARLINK-3750,1 52311U 22041BC  22308.36090092  .00003443  00000-0  23420-3 0  9993,2 52311  53.2148 171.8674 0002360  41.4657 318.6514 15.08856841 31489,6917.829000000002,95.436,541.327,538.061,0.0
52311.0,STARLINK-3750,PAYLOAD,2022-11-04 18:12:01,15.08846092,0.000216,53.2151,170.0821,44.0297,316.0866,0.00018155,2.603e-05,0.0,0 STARLINK-3750,1 52311U 22041BC  22308.75834726  .00002603  00000-0  18155-3 0  9992,2 52311  53.2151 170.0821 0002160  44.0297 316.0866 15.08846092 31541,6917.861999999999,95.437,541.221,538.2330000000002,0.0
52311.0,STARLINK-3750,PAYLOAD,2022-11-04 21:22:47,15.08842659,0.0002274,53.215,169.488,41.4112,318.7052,0.00010978,1.459e-05,0.0,0 STARLINK-3750,1 52311U 22041BC  22308.89082809  .00001459  00000-0  10978-3 0  9997,2 52311  53.2150 169.4880 0002274  41.4112 318.7052 15.08842659 31563,6917.871999999999,95.437,541.31,538.164,0.0
